{
  "norad_id": 62714,
  "name": "CENTAURI-8",
  "history": [
    {
      "epoch": "2026-03-28T16:56:03.083136Z",
      "apogee_km": 577.3168223612201,
      "perigee_km": 572.6665698892521,
      "latitude_deg": -5.892054347743479e-06,
      "longitude_deg": 88.7741560813778,
      "height_km": 577.7485798217376,
      "semi_major_axis_km": 6953.128696125235,
      "eccentricity": 0.0003344,
      "inclination_deg": 97.7076,
      "raan_deg": 168.9092,
      "arg_perigee_deg": 82.8793,
      "mean_anomaly_deg": 277.2809,
      "mean_motion_rev_day": 14.97381145
    },
    {
      "epoch": "2026-03-29T04:09:38.594304Z",
      "apogee_km": 577.3112261153419,
      "perigee_km": 572.6248333253097,
      "latitude_deg": 5.271858189894336e-05,
      "longitude_deg": -79.62347227464875,
      "height_km": 577.6974963895744,
      "semi_major_axis_km": 6953.105029720326,
      "eccentricity": 0.000337,
      "inclination_deg": 97.7076,
      "raan_deg": 169.3706,
      "arg_perigee_deg": 82.2596,
      "mean_anomaly_deg": 277.9009,
      "mean_motion_rev_day": 14.9738879
    },
    {
      "epoch": "2026-03-30T04:13:02.643456Z",
      "apogee_km": 577.2553323537741,
      "perigee_km": 572.5939998128315,
      "latitude_deg": -4.6955667926657424e-05,
      "longitude_deg": -80.47273578980224,
      "height_km": 577.5788702756935,
      "semi_major_axis_km": 6953.061666083302,
      "eccentricity": 0.0003352,
      "inclination_deg": 97.7077,
      "raan_deg": 170.3595,
      "arg_perigee_deg": 80.3437,
      "mean_anomaly_deg": 279.8163,
      "mean_motion_rev_day": 14.97402798
    }
  ]
}